IRIDIUM 159             
1 43578U 18061K   23332.72672763  .00000631  00000+0  21835-3 0  9997
2 43578  86.3960  85.9989 0002001  95.6309 264.5115 14.34224260279879
IRIDIUM 180             
1 43922U 19002A   23332.23784571  .00000542  00000+0  18651-3 0  9996
2 43922  86.3993  23.0765 0002121  89.5716 270.5723 14.34223888255411
IRIDIUM 176             
1 43923U 19002B   23332.66168636  .00001956  00000+0  30607-3 0  9997
2 43923  86.6122  22.9319 0002365  92.5199 267.6289 14.72270823262191
IRIDIUM 168             
1 43924U 19002C   23332.65011811  .00000559  00000+0  19236-3 0  9992
2 43924  86.3994  22.9552 0001990  90.2530 269.8894 14.34222497255451
IRIDIUM 173             
1 43925U 19002D   23332.56767020  .00000555  00000+0  19121-3 0  9992
2 43925  86.3990  22.9168 0002028  96.8574 263.2853 14.34225669255428
IRIDIUM 169             
1 43926U 19002E   23333.17867645  .00000797  00000+0  25397-3 0  9995
2 43926  86.4244  54.2668 0003987 140.8420 219.3067 14.38610947256375
IRIDIUM 172             
1 43927U 19002F   23332.56132825  .00000511  00000+0  17530-3 0  9997
2 43927  86.3992  22.9245 0002074  91.9583 268.1851 14.34223611255433
IRIDIUM 175             
1 43928U 19002G   23332.58749519  .00001964  00000+0  30745-3 0  9990
2 43928  86.1522   7.5091 0002394  93.0600 267.0890 14.72259129262172
